NORAD_CAT_ID,OBJECT_NAME,OBJECT_TYPE,EPOCH,MEAN_MOTION,ECCENTRICITY,INCLINATION,RA_OF_ASC_NODE,ARG_OF_PERICENTER,MEAN_ANOMALY,BSTAR,MEAN_MOTION_DOT,MEAN_MOTION_DDOT,TLE_LINE0,TLE_LINE1,TLE_LINE2,SEMIMAJOR_AXIS,PERIOD,APOGEE,PERIGEE,DECAYED
53852.0,STARLINK-4797,PAYLOAD,2024-07-20 09:48:26,15.08842153,0.0001147,53.2171,90.3548,100.0338,260.0783,0.00017478,2.495e-05,0.0,0 STARLINK-4797,1 53852U 22114AL  24202.40863523  .00002495  00000-0  17478-3 0  9994,2 53852  53.2171  90.3548 0001147 100.0338 260.0783 15.08842153102333,6917.874,95.437,540.532,538.945,0.0
53852.0,STARLINK-4797,PAYLOAD,2024-07-20 22:31:31,15.08841631,9.64e-05,53.215,87.9754,94.7653,265.3449,4.8755e-05,4.88e-06,0.0,0 STARLINK-4797,1 53852U 22114AL  24202.93855589  .00000488  00000-0  48755-4 0  9998,2 53852  53.2150  87.9754 0000964  94.7653 265.3449 15.08841631102951,6917.875,95.437,540.407,539.074,0.0
53852.0,STARLINK-4797,PAYLOAD,2024-07-21 01:42:17,15.08856384,0.0001433,53.2172,87.3792,88.6378,271.4778,0.00029121,4.352e-05,0.0,0 STARLINK-4797,1 53852U 22114AL  24203.07103091  .00004352  00000-0  29121-3 0  9997,2 53852  53.2172  87.3792 0001433  88.6378 271.4778 15.08856384102436,6917.83,95.437,540.687,538.704,0.0
53852.0,STARLINK-4797,PAYLOAD,2024-07-21 20:46:55,15.08840771,0.0001636,53.2169,83.8068,99.2204,260.8973,6.5083e-05,7.48e-06,0.0,0 STARLINK-4797,1 53852U 22114AL  24203.86591703  .00000748  00000-0  65083-4 0  9998,2 53852  53.2169  83.8068 0001636  99.2204 260.8973 15.08840771102555,6917.878,95.438,540.875,538.611,0.0
53852.0,STARLINK-4797,PAYLOAD,2024-07-21 22:22:18,15.08844323,0.0001468,53.217,83.5083,101.8639,258.2518,-2.0011e-05,-6.06e-06,0.0,0 STARLINK-4797,1 53852U 22114AL  24203.93215450 -.00000606  00000-0 -20011-4 0  9995,2 53852  53.2170  83.5083 0001468 101.8639 258.2518 15.08844323103101,6917.867,95.437,540.748,538.717,0.0
53852.0,STARLINK-4797,PAYLOAD,2024-07-22 22:13:05,15.0884948,0.0001447,53.2165,79.0553,82.2723,277.8434,8.8389e-05,1.119e-05,0.0,0 STARLINK-4797,1 53852U 22114AL  24204.92575394  .00001119  00000-0  88389-4 0  9991,2 53852  53.2165  79.0553 0001447  82.2723 277.8434 15.08849480103259,6917.851,95.437,540.717,538.715,0.0
53852.0,STARLINK-4797,PAYLOAD,2024-07-23 01:23:51,15.08855041,0.0001397,53.2161,78.4554,89.1636,270.9516,0.00019401,2.802e-05,0.0,0 STARLINK-4797,1 53852U 22114AL  24205.05822998  .00002802  00000-0  19401-3 0  9999,2 53852  53.2161  78.4554 0001397  89.1636 270.9516 15.08855041102739,6917.834,95.437,540.666,538.733,0.0
53852.0,STARLINK-4797,PAYLOAD,2024-07-23 15:42:19,15.08841749,0.0001213,53.2164,75.7689,110.3486,249.7636,-2.0783e-05,-6.19e-06,0.0,0 STARLINK-4797,1 53852U 22114AL  24205.65439528 -.00000619  00000-0 -20783-4 0  9990,2 53852  53.2164  75.7689 0001213 110.3486 249.7636 15.08841749102825,6917.875,95.437,540.579,538.901,0.0
53852.0,STARLINK-4797,PAYLOAD,2024-07-24 15:33:06,15.08844327,0.0001349,53.2151,71.3188,101.1489,258.9655,-8.0518e-05,-1.569e-05,0.0,0 STARLINK-4797,1 53852U 22114AL  24206.64799684 -.00001569  00000-0 -80518-4 0  9999,2 53852  53.2151  71.3188 0001349 101.1489 258.9655 15.08844327103513,6917.867,95.437,540.665,538.799,0.0
53852.0,STARLINK-4797,PAYLOAD,2024-07-25 01:05:25,15.08844465,0.0001609,53.2152,69.5336,107.2012,252.9157,2.1585e-05,5.6e-07,0.0,0 STARLINK-4797,1 53852U 22114AL  24207.04543580  .00000056  00000-0  21585-4 0  9993,2 53852  53.2152  69.5336 0001609 107.2012 252.9157 15.08844465103037,6917.867,95.437,540.845,538.619,0.0
53852.0,STARLINK-4797,PAYLOAD,2024-07-25 15:23:55,15.08826916,0.0001384,53.2166,66.86,91.0407,269.0744,-0.00010572,-1.969e-05,0.0,0 STARLINK-4797,1 53852U 22114AL  24207.64160971 -.00001969  00000-0 -10572-3 0  9997,2 53852  53.2166  66.8600 0001384  91.0407 269.0744 15.08826916103126,6917.92,95.438,540.743,538.828,0.0
53852.0,STARLINK-4797,PAYLOAD,2024-07-26 13:39:18,15.0883962,0.0001247,53.213,62.6962,83.8702,276.2433,0.00013639,1.883e-05,0.0,0 STARLINK-4797,1 53852U 22114AL  24208.56896587  .00001883  00000-0  13639-3 0  9998,2 53852  53.2130  62.6962 0001247  83.8702 276.2433 15.08839620103263,6917.882,95.438,540.609,538.884,0.0
53852.0,STARLINK-4797,PAYLOAD,2024-07-27 21:27:02,15.08831002,0.000147,53.2169,56.7498,81.3448,278.771,0.00013151,1.805e-05,0.0,0 STARLINK-4797,1 53852U 22114AL  24209.89377543  .00001805  00000-0  13151-3 0  9994,2 53852  53.2169  56.7498 0001470  81.3448 278.7710 15.08831002104005,6917.908,95.438,540.79,538.756,0.0
53852.0,STARLINK-4797,PAYLOAD,2024-07-28 13:20:51,15.08914808,0.0001718,53.217,53.7768,97.2659,262.8528,-0.0010788,-0.00017451,0.0,0 STARLINK-4797,1 53852U 22114AL  24210.55615719 -.00017451  00000-0 -10788-2 0  9997,2 53852  53.2170  53.7768 0001718  97.2659 262.8528 15.08914808103566,6917.652,95.433,540.705,538.328,0.0
53852.0,STARLINK-4797,PAYLOAD,2024-07-28 18:07:02,15.08843884,0.0001442,53.2177,52.8844,77.6107,282.5047,7.28e-05,8.71e-06,0.0,0 STARLINK-4797,1 53852U 22114AL  24210.75489133  .00000871  00000-0  72800-4 0  9999,2 53852  53.2177  52.8844 0001442  77.6107 282.5047 15.08843884103595,6917.869,95.437,540.731,538.736,0.0
53852.0,STARLINK-4797,PAYLOAD,2024-07-29 13:11:39,15.08845789,0.0001593,53.2172,49.3163,82.2057,277.9116,0.00029106,4.348e-05,0.0,0 STARLINK-4797,1 53852U 22114AL  24211.54976791  .00004348  00000-0  29106-3 0  9991,2 53852  53.2172  49.3163 0001593  82.2057 277.9116 15.08845789104253,6917.863,95.437,540.83,538.626,0.0
53852.0,STARLINK-4797,PAYLOAD,2024-07-29 19:33:12,15.08852893,0.0001556,53.2171,48.1273,81.7143,278.4025,0.00040656,6.191e-05,0.0,0 STARLINK-4797,1 53852U 22114AL  24211.81472390  .00006191  00000-0  40656-3 0  9998,2 53852  53.2171  48.1273 0001556  81.7143 278.4025 15.08852893103753,6917.841,95.437,540.782,538.63,0.0
53852.0,STARLINK-4797,PAYLOAD,2024-07-29 21:08:35,15.08856715,0.0001494,53.217,47.8296,82.8986,277.2176,0.00033205,5.003e-05,0.0,0 STARLINK-4797,1 53852U 22114AL  24211.88096135  .00005003  00000-0  33205-3 0  9997,2 53852  53.2170  47.8296 0001494  82.8986 277.2176 15.08856715104304,6917.829,95.436,540.728,538.661,0.0
53852.0,STARLINK-4797,PAYLOAD,2024-07-30 06:40:54,15.0884994,0.0001466,53.2167,46.0444,80.196,279.9198,0.00026106,3.87e-05,0.0,0 STARLINK-4797,1 53852U 22114AL  24212.27840434  .00003870  00000-0  26106-3 0  9992,2 53852  53.2167  46.0444 0001466  80.1960 279.9198 15.08849940103829,6917.85,95.437,540.729,538.701,0.0
53852.0,STARLINK-4797,PAYLOAD,2024-07-30 20:59:22,15.08850691,0.000162,53.2167,43.3683,82.0038,278.1138,0.00017638,2.521e-05,0.0,0 STARLINK-4797,1 53852U 22114AL  24212.87456244  .00002521  00000-0  17638-3 0  9992,2 53852  53.2167  43.3683 0001620  82.0038 278.1138 15.08850691104453,6917.848,95.437,540.833,538.592,0.0
53852.0,STARLINK-4797,PAYLOAD,2024-07-31 12:53:13,15.08840408,0.00018,53.2155,40.3937,82.5225,277.5972,-6.9007e-05,-1.386e-05,0.0,0 STARLINK-4797,1 53852U 22114AL  24213.53696609 -.00001386  00000-0 -69007-4 0  9995,2 53852  53.2155  40.3937 0001800  82.5225 277.5972 15.08840408104018,6917.879,95.438,540.989,538.499,0.0
53852.0,STARLINK-4797,PAYLOAD,2024-07-31 17:39:23,15.08839923,0.0001495,53.2165,39.5011,93.8094,266.3069,-4.3467e-05,-9.8e-06,0.0,0 STARLINK-4797,1 53852U 22114AL  24213.73568491 -.00000980  00000-0 -43467-4 0  9995,2 53852  53.2165  39.5011 0001495  93.8094 266.3069 15.08839923104586,6917.881,95.438,540.78,538.711,0.0
53852.0,STARLINK-4797,PAYLOAD,2024-08-01 12:44:00,15.08841845,0.0001451,53.2167,35.9314,97.9631,262.1526,0.000133,1.829e-05,0.0,0 STARLINK-4797,1 53852U 22114AL  24214.53056407  .00001829  00000-0  13300-3 0  9996,2 53852  53.2167  35.9314 0001451  97.9631 262.1526 15.08841845104700,6917.875,95.437,540.744,538.736,0.0
53852.0,STARLINK-4797,PAYLOAD,2024-08-01 19:05:32,15.08854632,0.0001321,53.2164,34.7455,81.8447,278.2695,0.00032471,4.886e-05,0.0,0 STARLINK-4797,1 53852U 22114AL  24214.79551810  .00004886  00000-0  32471-3 0  9998,2 53852  53.2164  34.7455 0001321  81.8447 278.2695 15.08854632104201,6917.836,95.437,540.615,538.787,0.0
53852.0,STARLINK-4797,PAYLOAD,2024-08-01 22:16:18,15.08864574,0.0001356,53.2162,34.1491,84.7395,275.3752,0.00036681,5.559e-05,0.0,0 STARLINK-4797,1 53852U 22114AL  24214.92799440  .00005559  00000-0  36681-3 0  9991,2 53852  53.2162  34.1491 0001356  84.7395 275.3752 15.08864574104764,6917.805,95.436,540.608,538.732,0.0
53852.0,STARLINK-4797,PAYLOAD,2024-08-02 04:37:51,15.08852774,0.0001471,53.2161,32.9552,70.6874,289.4277,0.00033374,5.029e-05,0.0,0 STARLINK-4797,1 53852U 22114AL  24215.19295818  .00005029  00000-0  33374-3 0  9999,2 53852  53.2161  32.9552 0001471  70.6874 289.4277 15.08852774104263,6917.841,95.437,540.724,538.689,0.0
53852.0,STARLINK-4797,PAYLOAD,2024-08-02 17:20:57,15.08828363,0.0001876,53.2186,30.5879,103.3565,256.7637,-0.00010591,-1.973e-05,0.0,0 STARLINK-4797,1 53852U 22114AL  24215.72289252 -.00001973  00000-0 -10591-3 0  9995,2 53852  53.2186  30.5879 0001876 103.3565 256.7637 15.08828363104349,6917.916,95.438,541.079,538.483,0.0
53852.0,STARLINK-4797,PAYLOAD,2024-08-03 04:28:39,15.08839161,0.0001672,53.2171,28.5001,90.2885,269.8299,0.00017522,2.502e-05,0.0,0 STARLINK-4797,1 53852U 22114AL  24216.18657090  .00002502  00000-0  17522-3 0  9993,2 53852  53.2171  28.5001 0001672  90.2885 269.8299 15.08839161104415,6917.883,95.438,540.905,538.591,0.0
53852.0,STARLINK-4797,PAYLOAD,2024-08-03 20:22:30,15.088717,0.000163,53.2165,25.5266,84.678,275.4398,0.0017905,0.00028348,0.0,0 STARLINK-4797,1 53852U 22114AL  24216.84896773  .00028348  00000-0  17905-2 0  9999,2 53852  53.2165  25.5266 0001630  84.6780 275.4398 15.08871700104512,6917.783,95.436,540.776,538.521,0.0
53852.0,STARLINK-4797,PAYLOAD,2024-08-04 04:19:26,15.08856551,0.0001473,53.2162,24.0389,92.8222,267.2939,0.00094856,0.00014847,0.0,0 STARLINK-4797,1 53852U 22114AL  24217.18016816  .00014847  00000-0  94856-3 0  9999,2 53852  53.2162  24.0389 0001473  92.8222 267.2939 15.08856551104568,6917.83,95.437,540.714,538.676,0.0
